{"type": "FeatureCollection", "features": [ {"type": "Feature", "properties": {"norad_id": 33905, "name": "COSMOS 2251 DEB", "group": "cosmos-2251-debris", "lat": 73.66661979811045, "lon": 54.336077790713595, "alt_km": 781.605027382142, "timestamp": "2025-12-13T16:48:33.102800+00:00", "meta": {"OBJECT_NAME": "COSMOS 2251 DEB", "OBJECT_ID": "1993-036DJ", "EPOCH": "2025-12-12T22:04:30.248256", "MEAN_MOTION": 14.35388029, "ECCENTRICITY": 0.00588835, "INCLINATION": 73.8874, "RA_OF_ASC_NODE": 316.3112, "ARG_OF_PERICENTER": 205.7938, "MEAN_ANOMALY": 175.4675, "EPHEMERIS_TYPE": 0, "CLASSIFICATION_TYPE": "U", "NORAD_CAT_ID": 33905, "ELEMENT_SET_NO": 999, "REV_AT_EPOCH": 87690, "BSTAR": 0.0010382988, "MEAN_MOTION_DOT": 3.013e-05, "MEAN_MOTION_DDOT": 0}, "tle": {"line1": "1 33905U 93036DJ  25346.91979454  .00003013  00000+0  10383-2 0  9992", "line2": "2 33905  73.8874 316.3112 0058883 205.7938 175.4675 14.35388029876900"}}, "geometry": {"type": "Point", "coordinates": [54.336077790713595, 73.66661979811045]}}, {"type": "Feature", "properties": {"norad_id": 33906, "name": "COSMOS 2251 DEB", "group": "cosmos-2251-debris", "lat": 50.53345304977796, "lon": -19.998198761284403, "alt_km": 686.3512113104916, "timestamp": "2025-12-13T16:48:33.102810+00:00", "meta": {"OBJECT_NAME": "COSMOS 2251 DEB", "OBJECT_ID": "1993-036DK", "EPOCH": "2025-12-12T09:49:49.961856", "MEAN_MOTION": 14.57084166, "ECCENTRICITY": 0.00366174, "INCLINATION": 74.0307, "RA_OF_ASC_NODE": 322.1011, "ARG_OF_PERICENTER": 351.5359, "MEAN_ANOMALY": 133.4843, "EPHEMERIS_TYPE": 0, "CLASSIFICATION_TYPE": "U", "NORAD_CAT_ID": 33906, "ELEMENT_SET_NO": 999, "REV_AT_EPOCH": 88003, "BSTAR": 0.0031055065, "MEAN_MOTION_DOT": 0.00014117, "MEAN_MOTION_DDOT": 0}, "tle": {"line1": "1 33906U 93036DK  25346.40960604  .00014117  00000+0  31055-2 0  9990", "line2": "2 33906  74.0307 322.1011 0036617 351.5359 133.4843 14.57084166880035"}}, "geometry": {"type": "Point", "coordinates": [-19.998198761284403, 50.53345304977796]}}, {"type": "Feature", "properties": {"norad_id": 33907, "name": "COSMOS 2251 DEB", "group": "cosmos-2251-debris", "lat": -62.0809715870116, "lon": -0.7054170889348874, "alt_km": 868.8338822583137, "timestamp": "2025-12-13T16:48:33.102821+00:00", "meta": {"OBJECT_NAME": "COSMOS 2251 DEB", "OBJECT_ID": "1993-036DL", "EPOCH": "2025-12-12T19:52:12.252576", "MEAN_MOTION": 14.30507476, "ECCENTRICITY": 0.01121647, "INCLINATION": 74.0707, "RA_OF_ASC_NODE": 33.4913, "ARG_OF_PERICENTER": 88.9492, "MEAN_ANOMALY": 33.6474, "EPHEMERIS_TYPE": 0, "CLASSIFICATION_TYPE": "U", "NORAD_CAT_ID": 33907, "ELEMENT_SET_NO": 999, "REV_AT_EPOCH": 86581, "BSTAR": 0.0023528703, "MEAN_MOTION_DOT": 6.547e-05, "MEAN_MOTION_DDOT": 0}, "tle": {"line1": "1 33907U 93036DL  25346.82791959  .00006547  00000+0  23529-2 0  9997", "line2": "2 33907  74.0707  33.4913 0112164  88.9492  33.6474 14.30507476865819"}}, "geometry": {"type": "Point", "coordinates": [-0.7054170889348874, -62.0809715870116]}}, {"type": "Feature", "properties": {"norad_id": 33908, "name": "COSMOS 2251 DEB", "group": "cosmos-2251-debris", "lat": -60.04159922883211, "lon": 54.26906164749003, "alt_km": 720.2503412393708, "timestamp": "2025-12-13T16:48:33.102832+00:00", "meta": {"OBJECT_NAME": "COSMOS 2251 DEB", "OBJECT_ID": "1993-036DM", "EPOCH": "2025-12-12T22:35:09.458016", "MEAN_MOTION": 14.07343043, "ECCENTRICITY": 0.02231149, "INCLINATION": 73.8377, "RA_OF_ASC_NODE": 205.4085, "ARG_OF_PERICENTER": 228.9135, "MEAN_ANOMALY": 129.2545, "EPHEMERIS_TYPE": 0, "CLASSIFICATION_TYPE": "U", "NORAD_CAT_ID": 33908, "ELEMENT_SET_NO": 999, "REV_AT_EPOCH": 85476, "BSTAR": 0.0027138869, "MEAN_MOTION_DOT": 5.698e-05, "MEAN_MOTION_DDOT": 0}, "tle": {"line1": "1 33908U 93036DM  25346.94108169  .00005698  00000+0  27139-2 0  9993", "line2": "2 33908  73.8377 205.4085 0223114 228.9135 129.2545 14.07343043854764"}}, "geometry": {"type": "Point", "coordinates": [54.26906164749003, -60.04159922883211]}}, {"type": "Feature", "properties": {"norad_id": 33911, "name": "COSMOS 2251 DEB", "group": "cosmos-2251-debris", "lat": -61.57790008676321, "lon": 11.790044386878831, "alt_km": 660.5044339097412, "timestamp": "2025-12-13T16:48:33.102842+00:00", "meta": {"OBJECT_NAME": "COSMOS 2251 DEB", "OBJECT_ID": "1993-036DQ", "EPOCH": "2025-12-11T11:44:22.098624", "MEAN_MOTION": 14.74796622, "ECCENTRICITY": 0.00142629, "INCLINATION": 74.0904, "RA_OF_ASC_NODE": 164.2887, "ARG_OF_PERICENTER": 105.3404, "MEAN_ANOMALY": 285.0385, "EPHEMERIS_TYPE": 0, "CLASSIFICATION_TYPE": "U", "NORAD_CAT_ID": 33911, "ELEMENT_SET_NO": 999, "REV_AT_EPOCH": 88626, "BSTAR": 0.0039923309, "MEAN_MOTION_DOT": 0.00026852, "MEAN_MOTION_DDOT": 0}, "tle": {"line1": "1 33911U 93036DQ  25345.48914466  .00026852  00000+0  39923-2 0  9999", "line2": "2 33911  74.0904 164.2887 0014262 105.3404 285.0385 14.74796622886260"}}, "geometry": {"type": "Point", "coordinates": [11.790044386878831, -61.57790008676321]}}, {"type": "Feature", "properties": {"norad_id": 33912, "name": "COSMOS 2251 DEB", "group": "cosmos-2251-debris", "lat": 50.47049872606772, "lon": -151.78349397817914, "alt_km": 721.2629607638501, "timestamp": "2025-12-13T16:48:33.102852+00:00", "meta": {"OBJECT_NAME": "COSMOS 2251 DEB", "OBJECT_ID": "1993-036DR", "EPOCH": "2025-12-12T20:47:20.218272", "MEAN_MOTION": 14.51895909, "ECCENTRICITY": 0.00114643, "INCLINATION": 74.0336, "RA_OF_ASC_NODE": 189.4868, "ARG_OF_PERICENTER": 268.3974, "MEAN_ANOMALY": 106.6142, "EPHEMERIS_TYPE": 0, "CLASSIFICATION_TYPE": "U", "NORAD_CAT_ID": 33912, "ELEMENT_SET_NO": 999, "REV_AT_EPOCH": 88435, "BSTAR": 0.0010976421, "MEAN_MOTION_DOT": 4.403e-05, "MEAN_MOTION_DDOT": 0}, "tle": {"line1": "1 33912U 93036DR  25346.86620623  .00004403  00000+0  10976-2 0  9997", "line2": "2 33912  74.0336 189.4868 0011464 268.3974 106.6142 14.51895909884351"}}, "geometry": {"type": "Point", "coordinates": [-151.78349397817914, 50.47049872606772]}}, {"type": "Feature", "properties": {"norad_id": 33913, "name": "COSMOS 2251 DEB", "group": "cosmos-2251-debris", "lat": 50.06894978534912, "lon": -18.1546560832695, "alt_km": 757.1813000063685, "timestamp": "2025-12-13T16:48:33.102862+00:00", "meta": {"OBJECT_NAME": "COSMOS 2251 DEB", "OBJECT_ID": "1993-036DS", "EPOCH": "2025-12-12T22:39:38.786688", "MEAN_MOTION": 14.48487532, "ECCENTRICITY": 0.00481662, "INCLINATION": 74.0335, "RA_OF_ASC_NODE": 183.2624, "ARG_OF_PERICENTER": 285.7897, "MEAN_ANOMALY": 219.8904, "EPHEMERIS_TYPE": 0, "CLASSIFICATION_TYPE": "U", "NORAD_CAT_ID": 33913, "ELEMENT_SET_NO": 999, "REV_AT_EPOCH": 88460, "BSTAR": 0.00082008727, "MEAN_MOTION_DOT": 3.095e-05, "MEAN_MOTION_DDOT": 0}, "tle": {"line1": "1 33913U 93036DS  25346.94419892  .00003095  00000+0  82009-3 0  9994", "line2": "2 33913  74.0335 183.2624 0048166 285.7897 219.8904 14.48487532884605"}}, "geometry": {"type": "Point", "coordinates": [-18.1546560832695, 50.06894978534912]}}, {"type": "Feature", "properties": {"norad_id": 33914, "name": "COSMOS 2251 DEB", "group": "cosmos-2251-debris", "lat": -12.235522173250976, "lon": -162.94188744464867, "alt_km": 937.5571532145323, "timestamp": "2025-12-13T16:48:33.102872+00:00", "meta": {"OBJECT_NAME": "COSMOS 2251 DEB", "OBJECT_ID": "1993-036DT", "EPOCH": "2025-12-12T19:43:04.416960", "MEAN_MOTION": 13.71985283, "ECCENTRICITY": 0.03011661, "INCLINATION": 74.0913, "RA_OF_ASC_NODE": 14.96, "ARG_OF_PERICENTER": 117.9797, "MEAN_ANOMALY": 52.4125, "EPHEMERIS_TYPE": 0, "CLASSIFICATION_TYPE": "U", "NORAD_CAT_ID": 33914, "ELEMENT_SET_NO": 999, "REV_AT_EPOCH": 84082, "BSTAR": 0.00052148492, "MEAN_MOTION_DOT": 6.35e-06, "MEAN_MOTION_DDOT": 0}, "tle": {"line1": "1 33914U 93036DT  25346.82157890  .00000635  00000+0  52148-3 0  9997", "line2": "2 33914  74.0913  14.9600 0301166 117.9797  52.4125 13.71985283840822"}}, "geometry": {"type": "Point", "coordinates": [-162.94188744464867, -12.235522173250976]}}, {"type": "Feature", "properties": {"norad_id": 33915, "name": "COSMOS 2251 DEB", "group": "cosmos-2251-debris", "lat": 9.854863793346041, "lon": -150.50123081527641, "alt_km": 722.7812598427672, "timestamp": "2025-12-13T16:48:33.102882+00:00", "meta": {"OBJECT_NAME": "COSMOS 2251 DEB", "OBJECT_ID": "1993-036DU", "EPOCH": "2025-12-12T13:58:56.659008", "MEAN_MOTION": 14.35083468, "ECCENTRICITY": 0.01043971, "INCLINATION": 74.0444, "RA_OF_ASC_NODE": 34.395, "ARG_OF_PERICENTER": 126.9959, "MEAN_ANOMALY": 29.3088, "EPHEMERIS_TYPE": 0, "CLASSIFICATION_TYPE": "U", "NORAD_CAT_ID": 33915, "ELEMENT_SET_NO": 999, "REV_AT_EPOCH": 87755, "BSTAR": 0.0006176592, "MEAN_MOTION_DOT": 1.848e-05, "MEAN_MOTION_DDOT": 0}, "tle": {"line1": "1 33915U 93036DU  25346.58260022  .00001848  00000+0  61766-3 0  9996", "line2": "2 33915  74.0444  34.3950 0104397 126.9959  29.3088 14.35083468877559"}}, "geometry": {"type": "Point", "coordinates": [-150.50123081527641, 9.854863793346041]}}, {"type": "Feature", "properties": {"norad_id": 33916, "name": "COSMOS 2251 DEB", "group": "cosmos-2251-debris", "lat": 71.53050498855706, "lon": 97.88636623434405, "alt_km": 1148.1755888214666, "timestamp": "2025-12-13T16:48:33.102892+00:00", "meta": {"OBJECT_NAME": "COSMOS 2251 DEB", "OBJECT_ID": "1993-036DV", "EPOCH": "2025-12-12T21:58:23.450016", "MEAN_MOTION": 13.68614555, "ECCENTRICITY": 0.03253207, "INCLINATION": 74.0528, "RA_OF_ASC_NODE": 40.2999, "ARG_OF_PERICENTER": 212.4011, "MEAN_ANOMALY": 325.652, "EPHEMERIS_TYPE": 0, "CLASSIFICATION_TYPE": "U", "NORAD_CAT_ID": 33916, "ELEMENT_SET_NO": 999, "REV_AT_EPOCH": 83893, "BSTAR": 0.00067046618, "MEAN_MOTION_DOT": 8.1e-06, "MEAN_MOTION_DDOT": 0}, "tle": {"line1": "1 33916U 93036DV  25346.91554919  .00000810  00000+0  67047-3 0  9991", "line2": "2 33916  74.0528  40.2999 0325320 212.4011 325.6520 13.68614555838937"}}, "geometry": {"type": "Point", "coordinates": [97.88636623434405, 71.53050498855706]}}]}